QIANFAN-105             
1 66047U 25233Q   25351.79207124  .00000060  00000+0  34176-4 0  9996
2 66047  88.9957  61.5800 0016106  31.5929 328.6211 13.95495842  8690
QIANFAN-106             
1 66048U 25233R   25351.71475879  .00000046  00000+0  33238-4 0  9995
2 66048  88.9952  61.6215 0016362  30.5413 329.6702 13.77616302  8667
QIANFAN-107             
1 66049U 25233S   25351.85871126  .00000044  00000+0  32685-4 0  9999
2 66049  88.9958  61.6080 0015860  33.1941 327.0215 13.74652172  8686
QIANFAN-108             
1 66050U 25233T   25351.85702592  .00000042  00000+0  29838-4 0  9995
2 66050  88.9956  61.6072 0016158  33.3887 326.8295 13.77079904  8683
